XRISM                   
1 57800U 23137A   24041.49293219  .00008386  00000+0  65965-3 0  9994
2 57800  31.0039 104.3770 0009753  24.6080 335.5019 14.99535719 23491
